{"spkid": "20234145", "covariance": {"labels": ["e", "q", "tp", "node", "peri", "i"], "elements": [{"sigma": 4.26959206948932e-08, "name": "e", "units": null, "value": ".3214558442597743", "title": "eccentricity", "label": "e"}, {"name": "q", "sigma": 3.9785748623492e-08, "units": "au", "value": ".6364715478605323", "title": "perihelion distance", "label": "q"}, {"title": "time of perihelion passage", "value": "2456680.649717506552", "units": "TDB", "name": "tp", "sigma": 4.097410472179e-06, "label": "tp"}, {"sigma": 4.7001241065711e-06, "name": "om", "units": "deg", "value": "178.2370707297855", "title": "longitude of the ascending node", "label": "node"}, {"label": "peri", "value": "125.5414936348707", "title": "argument of perihelion", "units": "deg", "name": "w", "sigma": 4.8776904882393e-06}, {"units": "deg", "title": "inclination", "value": "5.430801740997944", "name": "i", "sigma": 3.35147198653584e-06, "label": "i"}], "data": [["1.822941643984606E-15", "-1.69864710592391E-15", "1.613749336797104E-13", "-5.387223028158749E-14", "6.200202490387959E-14", "-5.127867065294045E-15"], ["-1.69864710592391E-15", "1.582905793531698E-15", "-1.499461178148274E-13", "5.00764918052504E-14", "-5.761338803648301E-14", "5.017737963741036E-15"], ["1.613749336797104E-13", "-1.499461178148274E-13", "1.678877257752212E-11", "-3.659529221277967E-12", "4.547440602910504E-12", "1.13124477358118E-12"], ["-5.387223028158749E-14", "5.00764918052504E-14", "-3.659529221277967E-12", "2.209116661717078E-11", "-2.285201844899252E-11", "8.156643322157804E-12"], ["6.200202490387959E-14", "-5.761338803648301E-14", "4.547440602910504E-12", "-2.285201844899252E-11", "2.379186449906013E-11", "-7.874669504087818E-12"], ["-5.127867065294045E-15", "5.017737963741036E-15", "1.13124477358118E-12", "8.156643322157804E-12", "-7.874669504087818E-12", "1.123236447653447E-11"]], "epoch": "2456633.5"}, "elements": [{"label": "e", "units": null, "title": "eccentricity", "value": ".321318033973079", "name": "e", "sigma": "4.2639E-8"}, {"label": "a", "value": ".9375636895114712", "title": "semi-major axis", "units": "au", "name": "a", "sigma": "5.4169E-10"}, {"label": "q", "title": "perihelion distance", "value": ".636307568073099", "units": "au", "name": "q", "sigma": "4.0314E-8"}, {"name": "i", "sigma": "3.354E-6", "units": "deg", "title": "inclination; angle with respect to x-y ecliptic plane", "value": "5.428312051629295", "label": "i"}, {"label": "node", "units": "deg", "title": "longitude of the ascending node", "value": "178.022586683835", "name": "om", "sigma": "4.7975E-6"}, {"units": "deg", "title": "argument of perihelion", "value": "125.7940828610938", "sigma": "5.0177E-6", "name": "w", "label": "peri"}, {"label": "M", "title": "mean anomaly", "value": "225.9168659594012", "units": "deg", "sigma": "4.6345E-6", "name": "ma"}, {"name": "tp", "sigma": "4.2512E-6", "units": "TDB", "title": "time of perihelion passage", "value": "2461324.001219993867", "label": "tp"}, {"sigma": "2.8737E-7", "name": "per", "title": "sidereal orbital period", "value": "331.588603711561", "units": "d", "label": "period"}, {"label": "n", "units": "deg/d", "value": "1.085682668132808", "title": "mean motion", "sigma": "9.409E-10", "name": "n"}, {"name": "ad", "sigma": "7.1575E-10", "value": "1.238819810949843", "title": "aphelion distance", "units": "au", "label": "Q"}], "epoch": "2461200.5"}